METEOSAT-10 (MSG-3)     
1 38552U 12035B   25124.16991866 -.00000015  00000+0  00000+0 0  9999
2 38552   3.7072  62.0611 0000558 328.9796 252.6290  1.00267541 47117
METOP-B                 
1 38771U 12049A   25124.14724089  .00000222  00000+0  12119-3 0  9993
2 38771  98.5798 179.3834 0002054 100.6622 259.4787 14.21489659655149
INSAT-3D                
1 39216U 13038B   25123.90994507 -.00000349  00000+0  00000+0 0  9997
2 39216   0.8686  88.0218 0001535 240.1798 350.9521  1.00268833 42971
FENGYUN 3C              
1 39260U 13052A   25124.24774191  .00000205  00000+0  12553-3 0  9995
2 39260  98.4533 113.0909 0015776 118.7425 241.5337 14.15615816600774
METEOR-M 2              
1 40069U 14037A   25124.22437690  .00000249  00000+0  13329-3 0  9996
2 40069  98.4666 110.6533 0006516 136.1168 224.0528 14.21284183561226
HIMAWARI-8              
1 40267U 14060A   25123.84078830 -.00000286  00000+0  00000+0 0  9996
2 40267   0.0448  87.9262 0000752 297.4611 279.9366  1.00273801 38640
FENGYUN 2G              
1 40367U 14090A   25123.89631124 -.00000309  00000+0  00000+0 0  9992
2 40367   4.6037  77.7705 0003004 134.3123  71.9327  1.00274487 37898
METEOSAT-11 (MSG-4)     
1 40732U 15034A   25123.88613984  .00000052  00000+0  00000+0 0  9994
2 40732   2.1789  72.2878 0001445 287.7541 190.3614  1.00266537  3116
ELEKTRO-L 2             
1 41105U 15074A   25124.16696472 -.00000124  00000+0  00000+0 0  9999
2 41105   5.6632  75.5496 0001996 233.7443 318.6398  1.00271828 34411
INSAT-3DR               
1 41752U 16054A   25123.89891126 -.00000088  00000+0  00000+0 0  9997
2 41752   0.0831  90.7382 0010860 183.7008 345.1930  1.00271274 31715
HIMAWARI-9              
1 41836U 16064A   25123.84078830 -.00000286  00000+0  00000+0 0  9995
2 41836   0.0518  95.9932 0000953 315.9128 253.5298  1.00270951 31105
GOES 16                 
1 41866U 16071A   25123.86693929 -.00000187  00000+0  00000+0 0  9990
2 41866   0.0522 272.4746 0000776 199.6805 334.8358  1.00128151 30990
FENGYUN 4A              
1 41882U 16077A   25123.90881562 -.00000367  00000+0  00000+0 0  9991
2 41882   1.2799  84.5854 0007968 165.8914  62.4071  1.00272804 30828
CYGFM05                 
1 41884U 16078A   25123.90057897  .00017122  00000+0  42080-3 0  9994
2 41884  34.9623  52.4351 0011469 267.4900  92.4506 15.39683948465325
