[
  {
    "OBJECT_NAME": "METEOSAT-10 (MSG-3)",
    "OBJECT_ID": "2012-035B",
    "EPOCH": "2025-05-04T04:04:40.972224",
    "MEAN_MOTION": 1.00267541,
    "ECCENTRICITY": 5.58e-05,
    "INCLINATION": 3.7072,
    "RA_OF_ASC_NODE": 62.0611,
    "ARG_OF_PERICENTER": 328.9796,
    "MEAN_ANOMALY": 252.629,
    "EPHEMERIS_TYPE": 0,
    "CLASSIFICATION_TYPE": "U",
    "NORAD_CAT_ID": 38552,
    "ELEMENT_SET_NO": 999,
    "REV_AT_EPOCH": 4711,
    "BSTAR": 0,
    "MEAN_MOTION_DOT": -1.5e-07,
    "MEAN_MOTION_DDOT": 0
  },
  {
    "OBJECT_NAME": "METOP-B",
    "OBJECT_ID": "2012-049A",
    "EPOCH": "2025-05-04T03:32:01.612896",
    "MEAN_MOTION": 14.21489659,
    "ECCENTRICITY": 0.0002054,
    "INCLINATION": 98.5798,
    "RA_OF_ASC_NODE": 179.3834,
    "ARG_OF_PERICENTER": 100.6622,
    "MEAN_ANOMALY": 259.4787,
    "EPHEMERIS_TYPE": 0,
    "CLASSIFICATION_TYPE": "U",
    "NORAD_CAT_ID": 38771,
    "ELEMENT_SET_NO": 999,
    "REV_AT_EPOCH": 65514,
    "BSTAR": 0.00012119,
    "MEAN_MOTION_DOT": 2.22e-06,
    "MEAN_MOTION_DDOT": 0
  },
  {
    "OBJECT_NAME": "INSAT-3D",
    "OBJECT_ID": "2013-038B",
    "EPOCH": "2025-05-03T21:50:19.254048",
    "MEAN_MOTION": 1.00268833,
    "ECCENTRICITY": 0.0001535,
    "INCLINATION": 0.8686,
    "RA_OF_ASC_NODE": 88.0218,
    "ARG_OF_PERICENTER": 240.1798,
    "MEAN_ANOMALY": 350.9521,
    "EPHEMERIS_TYPE": 0,
    "CLASSIFICATION_TYPE": "U",
    "NORAD_CAT_ID": 39216,
    "ELEMENT_SET_NO": 999,
    "REV_AT_EPOCH": 4297,
    "BSTAR": 0,
    "MEAN_MOTION_DOT": -3.49e-06,
    "MEAN_MOTION_DDOT": 0
  },
  {
    "OBJECT_NAME": "FENGYUN 3C",
    "OBJECT_ID": "2013-052A",
    "EPOCH": "2025-05-04T05:56:44.901024",
    "MEAN_MOTION": 14.15615816,
    "ECCENTRICITY": 0.0015776,
    "INCLINATION": 98.4533,
    "RA_OF_ASC_NODE": 113.0909,
    "ARG_OF_PERICENTER": 118.7425,
    "MEAN_ANOMALY": 241.5337,
    "EPHEMERIS_TYPE": 0,
    "CLASSIFICATION_TYPE": "U",
    "NORAD_CAT_ID": 39260,
    "ELEMENT_SET_NO": 999,
    "REV_AT_EPOCH": 60077,
    "BSTAR": 0.00012553,
    "MEAN_MOTION_DOT": 2.05e-06,
    "MEAN_MOTION_DDOT": 0
  },
  {
    "OBJECT_NAME": "METEOR-M 2",
    "OBJECT_ID": "2014-037A",
    "EPOCH": "2025-05-04T05:23:06.164160",
    "MEAN_MOTION": 14.21284183,
    "ECCENTRICITY": 0.0006516,
    "INCLINATION": 98.4666,
    "RA_OF_ASC_NODE": 110.6533,
    "ARG_OF_PERICENTER": 136.1168,
    "MEAN_ANOMALY": 224.0528,
    "EPHEMERIS_TYPE": 0,
    "CLASSIFICATION_TYPE": "U",
    "NORAD_CAT_ID": 40069,
    "ELEMENT_SET_NO": 999,
    "REV_AT_EPOCH": 56122,
    "BSTAR": 0.00013329,
    "MEAN_MOTION_DOT": 2.49e-06,
    "MEAN_MOTION_DDOT": 0
  },
  {
    "OBJECT_NAME": "HIMAWARI-8",
    "OBJECT_ID": "2014-060A",
    "EPOCH": "2025-05-03T20:10:44.109120",
    "MEAN_MOTION": 1.00273801,
    "ECCENTRICITY": 7.52e-05,
    "INCLINATION": 0.0448,
    "RA_OF_ASC_NODE": 87.9262,
    "ARG_OF_PERICENTER": 297.4611,
    "MEAN_ANOMALY": 279.9366,
    "EPHEMERIS_TYPE": 0,
    "CLASSIFICATION_TYPE": "U",
    "NORAD_CAT_ID": 40267,
    "ELEMENT_SET_NO": 999,
    "REV_AT_EPOCH": 3864,
    "BSTAR": 0,
    "MEAN_MOTION_DOT": -2.86e-06,
    "MEAN_MOTION_DDOT": 0
  },
  {
    "OBJECT_NAME": "FENGYUN 2G",
    "OBJECT_ID": "2014-090A",
    "EPOCH": "2025-05-03T21:30:41.291136",
    "MEAN_MOTION": 1.00274487,
    "ECCENTRICITY": 0.0003004,
    "INCLINATION": 4.6037,
    "RA_OF_ASC_NODE": 77.7705,
    "ARG_OF_PERICENTER": 134.3123,
    "MEAN_ANOMALY": 71.9327,
    "EPHEMERIS_TYPE": 0,
    "CLASSIFICATION_TYPE": "U",
    "NORAD_CAT_ID": 40367,
    "ELEMENT_SET_NO": 999,
    "REV_AT_EPOCH": 3789,
    "BSTAR": 0,
    "MEAN_MOTION_DOT": -3.09e-06,
    "MEAN_MOTION_DDOT": 0
  },
  {
    "OBJECT_NAME": "METEOSAT-11 (MSG-4)",
    "OBJECT_ID": "2015-034A",
    "EPOCH": "2025-05-03T21:16:02.482176",
    "MEAN_MOTION": 1.00266537,
    "ECCENTRICITY": 0.0001445,
    "INCLINATION": 2.1789,
    "RA_OF_ASC_NODE": 72.2878,
    "ARG_OF_PERICENTER": 287.7541,
    "MEAN_ANOMALY": 190.3614,
    "EPHEMERIS_TYPE": 0,
    "CLASSIFICATION_TYPE": "U",
    "NORAD_CAT_ID": 40732,
    "ELEMENT_SET_NO": 999,
    "REV_AT_EPOCH": 311,
    "BSTAR": 0,
    "MEAN_MOTION_DOT": 5.2e-07,
    "MEAN_MOTION_DDOT": 0
  },
  {
    "OBJECT_NAME": "ELEKTRO-L 2",
    "OBJECT_ID": "2015-074A",
    "EPOCH": "2025-05-04T04:00:25.751808",
    "MEAN_MOTION": 1.00271828,
    "ECCENTRICITY": 0.0001996,
    "INCLINATION": 5.6632,
    "RA_OF_ASC_NODE": 75.5496,
    "ARG_OF_PERICENTER": 233.7443,
    "MEAN_ANOMALY": 318.6398,
    "EPHEMERIS_TYPE": 0,
    "CLASSIFICATION_TYPE": "U",
    "NORAD_CAT_ID": 41105,
    "ELEMENT_SET_NO": 999,
    "REV_AT_EPOCH": 3441,
    "BSTAR": 0,
    "MEAN_MOTION_DOT": -1.24e-06,
    "MEAN_MOTION_DDOT": 0
  },
  {
    "OBJECT_NAME": "INSAT-3DR",
    "OBJECT_ID": "2016-054A",
    "EPOCH": "2025-05-03T21:34:25.932864",
    "MEAN_MOTION": 1.00271274,
    "ECCENTRICITY": 0.001086,
    "INCLINATION": 0.0831,
    "RA_OF_ASC_NODE": 90.7382,
    "ARG_OF_PERICENTER": 183.7008,
    "MEAN_ANOMALY": 345.193,
    "EPHEMERIS_TYPE": 0,
    "CLASSIFICATION_TYPE": "U",
    "NORAD_CAT_ID": 41752,
    "ELEMENT_SET_NO": 999,
    "REV_AT_EPOCH": 3171,
    "BSTAR": 0,
    "MEAN_MOTION_DOT": -8.8e-07,
    "MEAN_MOTION_DDOT": 0
  },
  {
    "OBJECT_NAME": "HIMAWARI-9",
    "OBJECT_ID": "2016-064A",
    "EPOCH": "2025-05-03T20:10:44.109120",
    "MEAN_MOTION": 1.00270951,
    "ECCENTRICITY": 9.53e-05,
    "INCLINATION": 0.0518,
    "RA_OF_ASC_NODE": 95.9932,
    "ARG_OF_PERICENTER": 315.9128,
    "MEAN_ANOMALY": 253.5298,
    "EPHEMERIS_TYPE": 0,
    "CLASSIFICATION_TYPE": "U",
    "NORAD_CAT_ID": 41836,
    "ELEMENT_SET_NO": 999,
    "REV_AT_EPOCH": 3110,
    "BSTAR": 0,
    "MEAN_MOTION_DOT": -2.86e-06,
    "MEAN_MOTION_DDOT": 0
  },
  {
    "OBJECT_NAME": "GOES 16",
    "OBJECT_ID": "2016-071A",
    "EPOCH": "2025-05-03T20:48:23.554656",
    "MEAN_MOTION": 1.00128151,
    "ECCENTRICITY": 7.76e-05,
    "INCLINATION": 0.0522,
    "RA_OF_ASC_NODE": 272.4746,
    "ARG_OF_PERICENTER": 199.6805,
    "MEAN_ANOMALY": 334.8358,
    "EPHEMERIS_TYPE": 0,
    "CLASSIFICATION_TYPE": "U",
    "NORAD_CAT_ID": 41866,
    "ELEMENT_SET_NO": 999,
    "REV_AT_EPOCH": 3099,
    "BSTAR": 0,
    "MEAN_MOTION_DOT": -1.87e-06,
    "MEAN_MOTION_DDOT": 0
  },
  {
    "OBJECT_NAME": "FENGYUN 4A",
    "OBJECT_ID": "2016-077A",
    "EPOCH": "2025-05-03T21:48:41.669568",
    "MEAN_MOTION": 1.00272804,
    "ECCENTRICITY": 0.0007968,
    "INCLINATION": 1.2799,
    "RA_OF_ASC_NODE": 84.5854,
    "ARG_OF_PERICENTER": 165.8914,
    "MEAN_ANOMALY": 62.4071,
    "EPHEMERIS_TYPE": 0,
    "CLASSIFICATION_TYPE": "U",
    "NORAD_CAT_ID": 41882,
    "ELEMENT_SET_NO": 999,
    "REV_AT_EPOCH": 3082,
    "BSTAR": 0,
    "MEAN_MOTION_DOT": -3.67e-06,
    "MEAN_MOTION_DDOT": 0
  },
  {
    "OBJECT_NAME": "CYGFM05",
    "OBJECT_ID": "2016-078A",
    "EPOCH": "2025-05-03T21:36:50.023008",
    "MEAN_MOTION": 15.39683948,
    "ECCENTRICITY": 0.0011469,
    "INCLINATION": 34.9623,
    "RA_OF_ASC_NODE": 52.4351,
    "ARG_OF_PERICENTER": 267.49,
    "MEAN_ANOMALY": 92.4506,
    "EPHEMERIS_TYPE": 0,
    "CLASSIFICATION_TYPE": "U",
    "NORAD_CAT_ID": 41884,
    "ELEMENT_SET_NO": 999,
    "REV_AT_EPOCH": 46532,
    "BSTAR": 0.0004208,
    "MEAN_MOTION_DOT": 0.00017122,
    "MEAN_MOTION_DDOT": 0
  }
]